{
  "type": "FeatureCollection",
  "features": [
    {
      "type": "Feature",
      "properties": {
        "norad_id": 66383,
        "name": "STARLINK-35690",
        "group": "last-30-days",
        "lat": 30.891165217941243,
        "lon": 76.01148270012642,
        "alt_km": 442.80126962565373,
        "timestamp": "2025-12-08T21:31:03.445612+00:00",
        "meta_object_name": "STARLINK-35690",
        "meta_object_id": "2025-257D",
        "meta_epoch": "2025-12-08T13:07:21.931968",
        "meta_mean_motion": 15.39636026,
        "meta_eccentricity": 0.00011293,
        "meta_inclination": 53.1603,
        "meta_ra_of_asc_node": 284.3099,
        "meta_arg_of_pericenter": 82.4956,
        "meta_mean_anomaly": 277.6177,
        "meta_ephemeris_type": 0,
        "meta_classification_type": "U",
        "meta_norad_cat_id": 66383,
        "meta_element_set_no": 999,
        "meta_rev_at_epoch": 572,
        "meta_bstar": 0.0021346432,
        "meta_mean_motion_dot": 0.00085998,
        "meta_mean_motion_ddot": 0,
        "tle_line1": "1 66383U 25257D   25342.54678162  .00085998  00000+0  21346-2 0  9998",
        "tle_line2": "2 66383  53.1603 284.3099 0001129  82.4956 277.6177 15.39636026  5720"
      },
      "geometry": {
        "type": "Point",
        "coordinates": [
          76.01148270012642,
          30.891165217941243
        ]
      }
    },
    {
      "type": "Feature",
      "properties": {
        "norad_id": 66384,
        "name": "STARLINK-35662",
        "group": "last-30-days",
        "lat": 29.58916673081214,
        "lon": 77.46009731403223,
        "alt_km": 442.66293617622523,
        "timestamp": "2025-12-08T21:31:03.445624+00:00",
        "meta_object_name": "STARLINK-35662",
        "meta_object_id": "2025-257E",
        "meta_epoch": "2025-12-08T13:06:53.895168",
        "meta_mean_motion": 15.39626376,
        "meta_eccentricity": 0.00024191,
        "meta_inclination": 53.16,
        "meta_ra_of_asc_node": 284.306,
        "meta_arg_of_pericenter": 81.3134,
        "meta_mean_anomaly": 278.8144,
        "meta_ephemeris_type": 0,
        "meta_classification_type": "U",
        "meta_norad_cat_id": 66384,
        "meta_element_set_no": 999,
        "meta_rev_at_epoch": 572,
        "meta_bstar": 0.0016794119,
        "meta_mean_motion_dot": 0.00067388,
        "meta_mean_motion_ddot": 0,
        "tle_line1": "1 66384U 25257E   25342.54645712  .00067388  00000+0  16794-2 0  9998",
        "tle_line2": "2 66384  53.1600 284.3060 0002419  81.3134 278.8144 15.39626376  5729"
      },
      "geometry": {
        "type": "Point",
        "coordinates": [
          77.46009731403223,
          29.58916673081214
        ]
      }
    },
    {
      "type": "Feature",
      "properties": {
        "norad_id": 66385,
        "name": "STARLINK-35659",
        "group": "last-30-days",
        "lat": 45.939738192384944,
        "lon": 51.927101215832316,
        "alt_km": 440.1181476693191,
        "timestamp": "2025-12-08T21:31:03.445635+00:00",
        "meta_object_name": "STARLINK-35659",
        "meta_object_id": "2025-257F",
        "meta_epoch": "2025-12-08T13:13:35.609376",
        "meta_mean_motion": 15.3966434,
        "meta_eccentricity": 0.0001071,
        "meta_inclination": 53.1587,
        "meta_ra_of_asc_node": 284.3387,
        "meta_arg_of_pericenter": 103.1034,
        "meta_mean_anomaly": 257.009,
        "meta_ephemeris_type": 0,
        "meta_classification_type": "U",
        "meta_norad_cat_id": 66385,
        "meta_element_set_no": 999,
        "meta_rev_at_epoch": 572,
        "meta_bstar": 0.0016812284,
        "meta_mean_motion_dot": 0.00067545,
        "meta_mean_motion_ddot": 0,
        "tle_line1": "1 66385U 25257F   25342.55110659  .00067545  00000+0  16812-2 0  9993",
        "tle_line2": "2 66385  53.1587 284.3387 0001071 103.1034 257.0090 15.39664340  5723"
      },
      "geometry": {
        "type": "Point",
        "coordinates": [
          51.927101215832316,
          45.939738192384944
        ]
      }
    },
    {
      "type": "Feature",
      "properties": {
        "norad_id": 66386,
        "name": "STARLINK-35651",
        "group": "last-30-days",
        "lat": 11.313266239247866,
        "lon": 93.98211780030337,
        "alt_km": 446.11689540989937,
        "timestamp": "2025-12-08T21:31:03.445676+00:00",
        "meta_object_name": "STARLINK-35651",
        "meta_object_id": "2025-257G",
        "meta_epoch": "2025-12-08T05:13:17.059584",
        "meta_mean_motion": 15.39563255,
        "meta_eccentricity": 0.00010047,
        "meta_inclination": 53.1605,
        "meta_ra_of_asc_node": 285.8085,
        "meta_arg_of_pericenter": 102.5868,
        "meta_mean_anomaly": 257.5249,
        "meta_ephemeris_type": 0,
        "meta_classification_type": "U",
        "meta_norad_cat_id": 66386,
        "meta_element_set_no": 999,
        "meta_rev_at_epoch": 567,
        "meta_bstar": 0.0016414731,
        "meta_mean_motion_dot": 0.00065702,
        "meta_mean_motion_ddot": 0,
        "tle_line1": "1 66386U 25257G   25342.21755856  .00065702  00000+0  16415-2 0  9993",
        "tle_line2": "2 66386  53.1605 285.8085 0001004 102.5868 257.5249 15.39563255  5678"
      },
      "geometry": {
        "type": "Point",
        "coordinates": [
          93.98211780030337,
          11.313266239247866
        ]
      }
    },
    {
      "type": "Feature",
      "properties": {
        "norad_id": 66387,
        "name": "STARLINK-35661",
        "group": "last-30-days",
        "lat": 9.8303084410633,
        "lon": 95.14060831184634,
        "alt_km": 446.501374430567,
        "timestamp": "2025-12-08T21:31:03.445687+00:00",
        "meta_object_name": "STARLINK-35661",
        "meta_object_id": "2025-257H",
        "meta_epoch": "2025-12-08T13:00:12.233664",
        "meta_mean_motion": 15.39635582,
        "meta_eccentricity": 0.00012894,
        "meta_inclination": 53.1587,
        "meta_ra_of_asc_node": 284.2774,
        "meta_arg_of_pericenter": 83.7946,
        "meta_mean_anomaly": 276.3206,
        "meta_ephemeris_type": 0,
        "meta_classification_type": "U",
        "meta_norad_cat_id": 66387,
        "meta_element_set_no": 999,
        "meta_rev_at_epoch": 572,
        "meta_bstar": 0.0012626513,
        "meta_mean_motion_dot": 0.00050466,
        "meta_mean_motion_ddot": 0,
        "tle_line1": "1 66387U 25257H   25342.54180826  .00050466  00000+0  12627-2 0  9991",
        "tle_line2": "2 66387  53.1587 284.2774 0001289  83.7946 276.3206 15.39635582  5729"
      },
      "geometry": {
        "type": "Point",
        "coordinates": [
          95.14060831184634,
          9.8303084410633
        ]
      }
    },
    {
      "type": "Feature",
      "properties": {
        "norad_id": 66388,
        "name": "STARLINK-35647",
        "group": "last-30-days",
        "lat": -9.290180080156025,
        "lon": 109.6033211946356,
        "alt_km": 449.2987860845378,
        "timestamp": "2025-12-08T21:31:03.445698+00:00",
        "meta_object_name": "STARLINK-35647",
        "meta_object_id": "2025-257J",
        "meta_epoch": "2025-12-08T12:53:59.215488",
        "meta_mean_motion": 15.39657848,
        "meta_eccentricity": 4.729e-05,
        "meta_inclination": 53.1554,
        "meta_ra_of_asc_node": 284.2505,
        "meta_arg_of_pericenter": 11.989,
        "meta_mean_anomaly": 348.1126,
        "meta_ephemeris_type": 0,
        "meta_classification_type": "U",
        "meta_norad_cat_id": 66388,
        "meta_element_set_no": 999,
        "meta_rev_at_epoch": 572,
        "meta_bstar": 0.001968617,
        "meta_mean_motion_dot": 0.00079265,
        "meta_mean_motion_ddot": 0,
        "tle_line1": "1 66388U 25257J   25342.53749092  .00079265  00000+0  19686-2 0  9997",
        "tle_line2": "2 66388  53.1554 284.2505 0000472  11.9890 348.1126 15.39657848  5728"
      },
      "geometry": {
        "type": "Point",
        "coordinates": [
          109.6033211946356,
          -9.290180080156025
        ]
      }
    },
    {
      "type": "Feature",
      "properties": {
        "norad_id": 66389,
        "name": "STARLINK-35694",
        "group": "last-30-days",
        "lat": -30.3196159588308,
        "lon": 128.50686618273514,
        "alt_km": 451.5590901429023,
        "timestamp": "2025-12-08T21:31:03.445709+00:00",
        "meta_object_name": "STARLINK-35694",
        "meta_object_id": "2025-257K",
        "meta_epoch": "2025-12-08T14:00:01.999872",
        "meta_mean_motion": 15.39589229,
        "meta_eccentricity": 0.00010204,
        "meta_inclination": 53.159,
        "meta_ra_of_asc_node": 283.9775,
        "meta_arg_of_pericenter": 88.7825,
        "meta_mean_anomaly": 193.276,
        "meta_ephemeris_type": 0,
        "meta_classification_type": "U",
        "meta_norad_cat_id": 66389,
        "meta_element_set_no": 999,
        "meta_rev_at_epoch": 582,
        "meta_bstar": 0.00082682482,
        "meta_mean_motion_dot": 0.00032781,
        "meta_mean_motion_ddot": 0,
        "tle_line1": "1 66389U 25257K   25342.58335648  .00032781  00000+0  82682-3 0  9990",
        "tle_line2": "2 66389  53.1590 283.9775 0001020  88.7825 193.2760 15.39589229  5825"
      },
      "geometry": {
        "type": "Point",
        "coordinates": [
          128.50686618273514,
          -30.3196159588308
        ]
      }
    }
  ]
}